STARLINK-5276           
1 55399U 23014J   26068.39626318  .00000340  00000+0  36248-4 0  9994
2 55399  69.9995  65.1102 0003245 267.8611  92.2177 14.98330885172018
SATELIOT_3              
1 60552U 24149CN  26068.79802274  .00002865  00000+0  25003-3 0  9992
2 60552  97.6866 147.0596 0005831  63.3535 296.8284 14.97601684 85206
